NORAD_CAT_ID,OBJECT_NAME,OBJECT_TYPE,EPOCH,MEAN_MOTION,ECCENTRICITY,INCLINATION,RA_OF_ASC_NODE,ARG_OF_PERICENTER,MEAN_ANOMALY,BSTAR,MEAN_MOTION_DOT,MEAN_MOTION_DDOT,TLE_LINE0,TLE_LINE1,TLE_LINE2,SEMIMAJOR_AXIS,PERIOD,APOGEE,PERIGEE,DECAYED
52113.0,STARLINK-3736,PAYLOAD,2022-10-09 16:54:58,15.08843653,0.0001796,53.2181,277.0428,49.3667,310.7481,4.151e-05,3.73e-06,0.0,0 STARLINK-3736,1 52113U 22029AB  22282.70483990  .00000373  00000-0  41510-4 0  9991,2 52113  53.2181 277.0428 0001796  49.3667 310.7481 15.08843653 32532,6917.869000000002,95.437,540.977,538.492,0.0
52113.0,STARLINK-3736,PAYLOAD,2022-10-10 08:48:49,15.08834074,0.0001989,53.2171,274.0688,46.3318,313.7839,9.0891e-06,-1.44e-06,0.0,0 STARLINK-3736,1 52113U 22029AB  22283.36724288 -.00000144  00000-0  90891-5 0  9996,2 52113  53.2171 274.0688 0001989  46.3318 313.7839 15.08834074 32638,6917.899,95.438,541.139,538.388,0.0
52113.0,STARLINK-3736,PAYLOAD,2022-10-10 16:45:45,15.08840229,0.0002032,53.2175,272.583,50.3923,309.7248,8.3124e-05,1.035e-05,0.0,0 STARLINK-3736,1 52113U 22029AB  22283.69844124  .00001035  00000-0  83124-4 0  9993,2 52113  53.2175 272.5830 0002032  50.3923 309.7248 15.08840229 32684,6917.88,95.438,541.15,538.339,0.0
52113.0,STARLINK-3736,PAYLOAD,2022-10-11 08:39:37,15.08829683,0.0001899,53.2181,269.6085,51.7337,308.3826,-0.00010848,-2.014e-05,0.0,0 STARLINK-3736,1 52113U 22029AB  22284.36084756 -.00002014  00000-0 -10848-3 0  9997,2 52113  53.2181 269.6085 0001899  51.7337 308.3826 15.08829683 32783,6917.9119999999975,95.438,541.091,538.4630000000002,0.0
52113.0,STARLINK-3736,PAYLOAD,2022-10-12 05:19:37,15.088422,0.00018,53.2175,265.7431,50.9878,309.1274,6.7357e-05,7.84e-06,0.0,0 STARLINK-3736,1 52113U 22029AB  22285.22196369  .00000784  00000-0  67357-4 0  9995,2 52113  53.2175 265.7431 0001800  50.9878 309.1274 15.08842200 32912,6917.874,95.437,540.984,538.493,0.0
52113.0,STARLINK-3736,PAYLOAD,2022-10-12 10:05:47,15.08840503,0.0001766,53.2171,264.8508,49.7306,310.384,0.00014774,2.064e-05,0.0,0 STARLINK-3736,1 52113U 22029AB  22285.42068571  .00002064  00000-0  14774-3 0  9997,2 52113  53.2171 264.8508 0001766  49.7306 310.3840 15.08840503 32946,6917.879,95.438,540.966,538.5219999999998,0.0
52113.0,STARLINK-3736,PAYLOAD,2022-10-13 05:10:25,15.08830536,0.0001828,53.2171,261.2819,52.3748,307.7409,-3.5526e-06,-3.45e-06,0.0,0 STARLINK-3736,1 52113U 22029AB  22286.21557367 -.00000345  00000-0 -35526-5 0  9993,2 52113  53.2171 261.2819 0001828  52.3748 307.7409 15.08830536 33061,6917.909000000002,95.438,541.039,538.51,0.0
52113.0,STARLINK-3736,PAYLOAD,2022-10-13 09:56:35,15.08829731,0.0001792,53.2179,260.3903,53.1857,306.93,4.7246e-05,4.64e-06,0.0,0 STARLINK-3736,1 52113U 22029AB  22286.41429561  .00000464  00000-0  47246-4 0  9990,2 52113  53.2179 260.3903 0001792  53.1857 306.9300 15.08829731 33092,6917.9119999999975,95.438,541.016,538.5369999999998,0.0
52113.0,STARLINK-3736,PAYLOAD,2022-10-14 03:25:48,15.08844895,0.0001757,53.2178,257.1192,53.919,306.1964,9.7396e-05,1.263e-05,0.0,0 STARLINK-3736,1 52113U 22029AB  22287.14292692  .00001263  00000-0  97396-4 0  9993,2 52113  53.2178 257.1192 0001757  53.9190 306.1964 15.08844895 33203,6917.865,95.437,540.946,538.515,0.0
52113.0,STARLINK-3736,PAYLOAD,2022-10-14 09:47:21,15.08845556,0.0001798,53.2173,255.9298,52.5886,307.527,0.00014667,2.047e-05,0.0,0 STARLINK-3736,1 52113U 22029AB  22287.40788838  .00002047  00000-0  14667-3 0  9994,2 52113  53.2173 255.9298 0001798  52.5886 307.5270 15.08845556 33247,6917.863,95.437,540.972,538.485,0.0
52113.0,STARLINK-3736,PAYLOAD,2022-10-14 20:55:03,15.08840826,0.0001851999999999,53.2173,253.8486,53.14,306.9762,5.248600000000001e-05,5.47e-06,0.0,0 STARLINK-3736,1 52113U 22029AB  22287.87156998  .00000547  00000-0  52486-4 0  9996,2 52113  53.2173 253.8486 0001852  53.1400 306.9762 15.08840826 33315,6917.878000000002,95.438,541.024,538.462,0.0
52113.0,STARLINK-3736,PAYLOAD,2022-10-15 09:38:08,15.08843272,0.0001733999999999,53.2172,251.4703,54.0799,306.0354,8.027e-05,9.9e-06,0.0,0 STARLINK-3736,1 52113U 22029AB  22288.40148837  .00000990  00000-0  80270-4 0  9993,2 52113  53.2172 251.4703 0001734  54.0799 306.0354 15.08843272 33394,6917.87,95.437,540.935,538.536,0.0
52113.0,STARLINK-3736,PAYLOAD,2022-10-16 04:42:46,15.08833121,0.0001564999999999,53.218,247.9032,60.7268,299.3881,-7.4436e-05,-1.472e-05,0.0,0 STARLINK-3736,1 52113U 22029AB  22289.19637090 -.00001472  00000-0 -74436-4 0  9999,2 52113  53.2180 247.9032 0001565  60.7268 299.3881 15.08833121 33510,6917.901,95.438,540.849,538.684,0.0
52113.0,STARLINK-3736,PAYLOAD,2022-10-16 09:28:56,15.0882417,0.0001656,53.2174,247.0097,49.5309,310.5828,-0.00028479,-4.816e-05,0.0,0 STARLINK-3736,1 52113U 22029AB  22289.39509642 -.00004816  00000-0 -28479-3 0  9992,2 52113  53.2174 247.0097 0001656  49.5309 310.5828 15.08824170 33541,6917.929,95.439,540.939,538.648,0.0
52113.0,STARLINK-3736,PAYLOAD,2022-10-17 02:58:10,15.08841855,0.0001706999999999,53.2175,243.7388,62.5118,297.6047,-0.0002198999999999,-3.786e-05,0.0,0 STARLINK-3736,1 52113U 22029AB  22290.12373212 -.00003786  00000-0 -21990-3 0  9993,2 52113  53.2175 243.7388 0001707  62.5118 297.6047 15.08841855 33657,6917.875,95.437,540.9209999999998,538.559,0.0
52113.0,STARLINK-3736,PAYLOAD,2022-10-17 09:19:43,15.08841215,0.0001372,53.2175,242.5486,56.8714,303.2409,4.7248e-05,4.64e-06,0.0,0 STARLINK-3736,1 52113U 22029AB  22290.38869301  .00000464  00000-0  47248-4 0  9993,2 52113  53.2175 242.5486 0001372  56.8714 303.2409 15.08841215 33699,6917.877,95.437,540.691,538.793,0.0
52113.0,STARLINK-3736,PAYLOAD,2022-10-17 20:27:27,15.08803265,0.0001585999999999,53.2171,240.4671,54.5667,305.5473,-0.00040907,-6.786e-05,0.0,0 STARLINK-3736,1 52113U 22029AB  22290.85239688 -.00006786  00000-0 -40907-3 0  9993,2 52113  53.2171 240.4671 0001586  54.5667 305.5473 15.08803265 33764,6917.993,95.44,540.955,538.76,0.0
52113.0,STARLINK-3736,PAYLOAD,2022-10-18 02:48:59,15.08825269,0.0001541,53.217,239.278,42.9947,317.1166,5.786799999999999e-06,-1.96e-06,0.0,0 STARLINK-3736,1 52113U 22029AB  22291.11735081 -.00000196  00000-0  57868-5 0  9995,2 52113  53.2170 239.2780 0001541  42.9947 317.1166 15.08825269 33804,6917.925,95.438,540.856,538.724,0.0
52113.0,STARLINK-3736,PAYLOAD,2022-10-18 07:35:09,15.0881204,0.0001641,53.2173,238.3861,47.7142,312.3989,-0.00015897,-2.815e-05,0.0,0 STARLINK-3736,1 52113U 22029AB  22291.31608097 -.00002815  00000-0 -15897-3 0  9998,2 52113  53.2173 238.3861 0001641  47.7142 312.3989 15.08812040 33834,6917.965999999999,95.439,540.966,538.696,0.0
52113.0,STARLINK-3736,PAYLOAD,2022-10-18 09:10:32,15.08812292,0.0001662,53.2174,238.0888,48.2148,311.8986,-0.00014052,-2.522e-05,0.0,0 STARLINK-3736,1 52113U 22029AB  22291.38232233 -.00002522  00000-0 -14052-3 0  9997,2 52113  53.2174 238.0888 0001662  48.2148 311.8986 15.08812292 33847,6917.965,95.439,540.98,538.68,0.0
52113.0,STARLINK-3736,PAYLOAD,2022-10-18 13:56:41,15.08828557,0.0002046999999999,53.2171,237.1964,58.9188,301.2004,0.00019118,2.755e-05,0.0,0 STARLINK-3736,1 52113U 22029AB  22291.58103831  .00002755  00000-0  19118-3 0  9994,2 52113  53.2171 237.1964 0002047  58.9188 301.2004 15.08828557 33877,6917.915,95.438,541.196,538.364,0.0
52113.0,STARLINK-3736,PAYLOAD,2022-10-19 02:39:45,15.08852389,0.000173,53.217,234.8177,53.3271,306.788,0.00041673,6.353e-05,0.0,0 STARLINK-3736,1 52113U 22029AB  22292.11094776  .00006353  00000-0  41673-3 0  9990,2 52113  53.2170 234.8177 0001730  53.3271 306.7880 15.08852389 33957,6917.843000000003,95.437,540.904,538.511,0.0
52113.0,STARLINK-3736,PAYLOAD,2022-10-19 07:25:55,15.08860759,0.0001783,53.2169,233.926,55.8719,304.2442,0.00074683,0.00011624,0.0,0 STARLINK-3736,1 52113U 22029AB  22292.30966821  .00011624  00000-0  74683-3 0  9994,2 52113  53.2169 233.9260 0001783  55.8719 304.2442 15.08860759 33980,6917.816999999999,95.436,540.915,538.448,0.0
52113.0,STARLINK-3736,PAYLOAD,2022-10-19 20:09:00,15.08863307,0.0002065999999999,53.217,231.547,55.1564,304.9622,0.00062465,9.674e-05,0.0,0 STARLINK-3736,1 52113U 22029AB  22292.83958492  .00009674  00000-0  62465-3 0  9994,2 52113  53.2170 231.5470 0002066  55.1564 304.9622 15.08863307 34064,6917.809,95.436,541.1030000000002,538.245,0.0
52113.0,STARLINK-3736,PAYLOAD,2022-10-20 04:05:55,15.088498,0.0001932,53.2174,230.0602,54.0237,306.0934,0.00027731,4.129e-05,0.0,0 STARLINK-3736,1 52113U 22029AB  22293.17078534  .00004129  00000-0  27731-3 0  9999,2 52113  53.2174 230.0602 0001932  54.0237 306.0934 15.08849800 34112,6917.85,95.437,541.052,538.379,0.0
52113.0,STARLINK-3736,PAYLOAD,2022-10-20 07:16:42,15.08846742,0.0001669,53.2175,229.4654,52.1236,307.9907,0.00036694,5.558e-05,0.0,0 STARLINK-3736,1 52113U 22029AB  22293.30326468  .00005558  00000-0  36694-3 0  9991,2 52113  53.2175 229.4654 0001669  52.1236 307.9907 15.08846742 34131,6917.86,95.437,540.879,538.57,0.0
52113.0,STARLINK-3736,PAYLOAD,2022-10-20 19:59:47,15.08839588,6.27e-05,53.2172,227.0857,69.3717,290.7343,-2.2227e-05,-6.41e-06,0.0,0 STARLINK-3736,1 52113U 22029AB  22293.83318360 -.00000641  00000-0 -22227-4 0  9999,2 52113  53.2172 227.0857 0000627  69.3717 290.7343 15.08839588 34216,6917.882,95.438,540.18,539.313,0.0
52113.0,STARLINK-3736,PAYLOAD,2022-10-21 07:07:29,15.0884426,0.0001799,53.2185,225.0054,54.1238,305.9921,-0.00013424,-2.424e-05,0.0,0 STARLINK-3736,1 52113U 22029AB  22294.29686781 -.00002424  00000-0 -13424-3 0  9994,2 52113  53.2185 225.0054 0001799  54.1238 305.9921 15.08844260 34289,6917.8669999999975,95.437,540.977,538.488,0.0
52113.0,STARLINK-3736,PAYLOAD,2022-10-21 19:50:33,15.08850045,0.0001564,53.2183,222.6268,50.9842,309.1289,-3.6376e-05,-8.67e-06,0.0,0 STARLINK-3736,1 52113U 22029AB  22294.82677764 -.00000867  00000-0 -36376-4 0  9995,2 52113  53.2183 222.6268 0001564  50.9842 309.1289 15.08850045 34362,6917.85,95.437,540.797,538.633,0.0
